[{"OBJECT_NAME":"STARLINK-30997","OBJECT_ID":"2023-186K","EPOCH":"2026-03-09T00:15:15.075360","MEAN_MOTION":15.26763988,"ECCENTRICITY":4.996e-5,"INCLINATION":42.9998,"RA_OF_ASC_NODE":67.3412,"ARG_OF_PERICENTER":244.0827,"MEAN_ANOMALY":115.9973,"EPHEMERIS_TYPE":0,"CLASSIFICATION_TYPE":"U","NORAD_CAT_ID":58482,"ELEMENT_SET_NO":999,"REV_AT_EPOCH":12579,"BSTAR":0.00089142251,"MEAN_MOTION_DOT":0.00023746,"MEAN_MOTION_DDOT":0},{"OBJECT_NAME":"NUSAT-48 (HENRIETTA LEAVITT)","OBJECT_ID":"2024-149AG","EPOCH":"2026-03-09T19:19:17.269536","MEAN_MOTION":15.29812597,"ECCENTRICITY":0.00027538,"INCLINATION":97.3923,"RA_OF_ASC_NODE":150.8264,"ARG_OF_PERICENTER":263.3026,"MEAN_ANOMALY":96.7901,"EPHEMERIS_TYPE":0,"CLASSIFICATION_TYPE":"U","NORAD_CAT_ID":60498,"ELEMENT_SET_NO":999,"REV_AT_EPOCH":8694,"BSTAR":0.00045211745,"MEAN_MOTION_DOT":0.00012988,"MEAN_MOTION_DDOT":0}]
